NORAD_CAT_ID,OBJECT_NAME,OBJECT_TYPE,EPOCH,MEAN_MOTION,ECCENTRICITY,INCLINATION,RA_OF_ASC_NODE,ARG_OF_PERICENTER,MEAN_ANOMALY,BSTAR,MEAN_MOTION_DOT,MEAN_MOTION_DDOT,TLE_LINE0,TLE_LINE1,TLE_LINE2,SEMIMAJOR_AXIS,PERIOD,APOGEE,PERIGEE,DECAYED
55402.0,STARLINK-5071,PAYLOAD,2023-12-21 03:46:00,14.98326271,0.0002705,70.0001,305.6432,254.2381,105.8479,0.00018487,2.113e-05,0.0,0 STARLINK-5071,1 55402U 23014M   23355.15695048  .00002113  00000-0  18487-3 0  9990,2 55402  70.0001 305.6432 0002705 254.2381 105.8479 14.98326271 49851,6950.204,96.107,573.949,570.189,0.0
55402.0,STARLINK-5071,PAYLOAD,2023-12-21 06:58:16,14.98327587,0.0002671,70.0002,305.3066,253.9715,106.115,0.00017746,2.025e-05,0.0,0 STARLINK-5071,1 55402U 23014M   23355.29047008  .00002025  00000-0  17746-3 0  9991,2 55402  70.0002 305.3066 0002671 253.9715 106.1150 14.98327587 50810,6950.2,96.107,573.922,570.209,0.0
55402.0,STARLINK-5071,PAYLOAD,2023-12-21 22:59:37,14.98329065,0.0002417,70.0006,303.6228,248.1388,111.9514,-1.819e-05,-3.1e-06,0.0,0 STARLINK-5071,1 55402U 23014M   23355.95807496 -.00000310  00000-0 -18190-4 0  9991,2 55402  70.0006 303.6228 0002417 248.1388 111.9514 14.98329065 50917,6950.196,96.107,573.741,570.381,0.0
55402.0,STARLINK-5071,PAYLOAD,2023-12-22 03:48:01,14.98330444,0.000246,70.0005,303.1182,249.0628,111.0267,-4.1281e-05,-5.85e-06,0.0,0 STARLINK-5071,1 55402U 23014M   23356.15835468 -.00000585  00000-0 -41281-4 0  9995,2 55402  70.0005 303.1182 0002460 249.0628 111.0267 14.98330444 50004,6950.192,96.107,573.766,570.347,0.0
55402.0,STARLINK-5071,PAYLOAD,2023-12-22 07:00:17,14.98328451,0.0002448,70.0005,302.7812,253.2624,106.8266,2.9629e-06,-5.8e-07,0.0,0 STARLINK-5071,1 55402U 23014M   23356.29187496 -.00000058  00000-0  29629-5 0  9998,2 55402  70.0005 302.7812 0002448 253.2624 106.8266 14.98328451 50969,6950.198,96.107,573.764,570.361,0.0
55402.0,STARLINK-5071,PAYLOAD,2023-12-22 21:25:30,14.98331905,0.0002385,70.0006,301.2661,255.3844,104.7051,-1.7514e-05,-3.02e-06,0.0,0 STARLINK-5071,1 55402U 23014M   23356.89271255 -.00000302  00000-0 -17514-4 0  9993,2 55402  70.0006 301.2661 0002385 255.3844 104.7051 14.98331905 51051,6950.187,96.107,573.71,570.394,0.0
55402.0,STARLINK-5071,PAYLOAD,2023-12-23 03:50:02,14.98332228,0.0002387,70.0005,300.5929,253.3096,106.7802,-1.0806e-05,-2.22e-06,0.0,0 STARLINK-5071,1 55402U 23014M   23357.15975171 -.00000222  00000-0 -10806-4 0  9999,2 55402  70.0005 300.5929 0002387 253.3096 106.7802 14.98332228 50153,6950.186,96.107,573.71,570.392,0.0
55402.0,STARLINK-5071,PAYLOAD,2023-12-23 07:02:18,14.98335268,0.000248,70.0001,300.2552,256.1672,103.9211,1.7622e-05,1.17e-06,0.0,0 STARLINK-5071,1 55402U 23014M   23357.29326872  .00000117  00000-0  17622-4 0  9996,2 55402  70.0001 300.2552 0002480 256.1672 103.9211 14.98335268 51110,6950.177,96.107,573.765,570.318,0.0
55402.0,STARLINK-5071,PAYLOAD,2023-12-23 21:27:31,14.9832858,0.0002267,70.0005,298.74,249.6708,110.4207,3.7671e-05,3.57e-06,0.0,0 STARLINK-5071,1 55402U 23014M   23357.89411216  .00000357  00000-0  37671-4 0  9991,2 55402  70.0005 298.7400 0002267 249.6708 110.4207 14.98328580 51204,6950.197,96.107,573.638,570.487,0.0
55402.0,STARLINK-5071,PAYLOAD,2023-12-24 03:52:03,14.98327011,0.0002324,70.0003,298.0667,251.6036,108.487,2.4281e-05,1.97e-06,0.0,0 STARLINK-5071,1 55402U 23014M   23358.16115388  .00000197  00000-0  24281-4 0  9998,2 55402  70.0003 298.0667 0002324 251.6036 108.4870 14.98327011 50302,6950.202,96.107,573.682,570.452,0.0
55402.0,STARLINK-5071,PAYLOAD,2023-12-24 07:04:19,14.98328258,0.0002256,70.0004,297.7302,243.9133,116.1794,2.777e-05,2.38e-06,0.0,0 STARLINK-5071,1 55402U 23014M   23358.29467298  .00000238  00000-0  27770-4 0  9994,2 55402  70.0004 297.7302 0002256 243.9133 116.1794 14.98328258 51262,6950.198,96.107,573.631,570.495,0.0
55402.0,STARLINK-5071,PAYLOAD,2023-12-24 21:29:32,14.98329222,0.000234,70.0005,296.2165,245.9364,114.155,3.4936e-06,-5.1e-07,0.0,0 STARLINK-5071,1 55402U 23014M   23358.89551302 -.00000051  00000-0  34936-5 0  9997,2 55402  70.0005 296.2165 0002340 245.9364 114.1550 14.98329222 51356,6950.195,96.107,573.687,570.434,0.0
55402.0,STARLINK-5071,PAYLOAD,2023-12-25 03:54:04,14.98330302,0.0002273,70.0008,295.543,243.9452,116.1473,3.3352e-05,3.05e-06,0.0,0 STARLINK-5071,1 55402U 23014M   23359.16255152  .00000305  00000-0  33352-4 0  9993,2 55402  70.0008 295.5430 0002273 243.9452 116.1473 14.98330302 50454,6950.192,96.107,573.637,570.477,0.0
55402.0,STARLINK-5071,PAYLOAD,2023-12-25 05:30:12,14.98338215,0.00029,69.999,295.3733,265.3949,94.6879,6.1333e-05,6.39e-06,0.0,0 STARLINK-5071,1 55402U 23014M   23359.22930585  .00000639  00000-0  61333-4 0  9990,2 55402  69.9990 295.3733 0002900 265.3949  94.6879 14.98338215 51408,6950.167,96.106,574.048,570.017,0.0
55402.0,STARLINK-5071,PAYLOAD,2023-12-25 21:31:34,14.98315563,0.0002598,70.0002,293.6904,262.5282,97.5582,-0.00010053,-1.292e-05,0.0,0 STARLINK-5071,1 55402U 23014M   23359.89692700 -.00001292  00000-0 -10053-3 0  9997,2 55402  70.0002 293.6904 0002598 262.5282  97.5582 14.98315563 51503,6950.238,96.108,573.908,570.297,0.0
55402.0,STARLINK-5071,PAYLOAD,2023-12-26 03:56:07,14.98311016,0.0002333,70.001,293.0194,237.4379,122.6554,-0.00015441,-1.934e-05,0.0,0 STARLINK-5071,1 55402U 23014M   23360.16397345 -.00001934  00000-0 -15441-3 0  9995,2 55402  70.0010 293.0194 0002333 237.4379 122.6554 14.98311016 50600,6950.252,96.108,573.738,570.495,0.0
55402.0,STARLINK-5071,PAYLOAD,2023-12-26 05:32:15,14.98317627,0.0002247,70.0003,292.8492,266.1192,93.971,-9.3336e-05,-1.206e-05,0.0,0 STARLINK-5071,1 55402U 23014M   23360.23072991 -.00001206  00000-0 -93336-4 0  9992,2 55402  70.0003 292.8492 0002247 266.1192  93.9710 14.98317627 50615,6950.231,96.108,573.658,570.534,0.0
55402.0,STARLINK-5071,PAYLOAD,2023-12-26 19:57:26,14.98328046,0.0002921,69.9982,291.3309,268.0702,92.0122,6.0364e-06,-2.1e-07,0.0,0 STARLINK-5071,1 55402U 23014M   23360.83156230 -.00000021  00000-0  60364-5 0  9996,2 55402  69.9982 291.3309 0002921 268.0702  92.0122 14.98328046 50700,6950.199,96.107,574.094,570.034,0.0
55402.0,STARLINK-5071,PAYLOAD,2023-12-26 21:33:34,14.98329068,0.0002991,69.9985,291.1617,266.6101,93.4716,1.0068e-05,2.7e-07,0.0,0 STARLINK-5071,1 55402U 23014M   23360.89832108  .00000027  00000-0  10068-4 0  9997,2 55402  69.9985 291.1617 0002991 266.6101  93.4716 14.98329068 51651,6950.196,96.107,574.14,569.982,0.0
55402.0,STARLINK-5071,PAYLOAD,2023-12-27 03:58:06,14.98335942,0.0002486,69.9991,290.4889,265.6843,94.4032,0.00012658,1.418e-05,0.0,0 STARLINK-5071,1 55402U 23014M   23361.16535407  .00001418  00000-0  12658-3 0  9991,2 55402  69.9991 290.4889 0002486 265.6843  94.4032 14.98335942 50752,6950.175,96.107,573.767,570.312,0.0
55402.0,STARLINK-5071,PAYLOAD,2023-12-27 05:34:14,14.98336643,0.0002698,69.9993,290.3226,262.7889,97.2963,0.00023493,2.712e-05,0.0,0 STARLINK-5071,1 55402U 23014M   23361.23211085  .00002712  00000-0  23493-3 0  9999,2 55402  69.9993 290.3226 0002698 262.7889  97.2963 14.98336643 51700,6950.172,96.107,573.913,570.162,0.0
55402.0,STARLINK-5071,PAYLOAD,2023-12-27 21:35:35,14.98325738,0.000228,70.0005,288.6391,264.7416,95.3483,0.00030745,3.577e-05,0.0,0 STARLINK-5071,1 55402U 23014M   23361.89971341  .00003577  00000-0  30745-3 0  9997,2 55402  70.0005 288.6391 0002280 264.7416  95.3483 14.98325738 51805,6950.206,96.107,573.656,570.486,0.0
55402.0,STARLINK-5071,PAYLOAD,2023-12-28 04:00:07,14.98323622,0.00025,69.9996,287.9651,268.0385,92.0488,0.00031939,3.719e-05,0.0,0 STARLINK-5071,1 55402U 23014M   23362.16675490  .00003719  00000-0  31939-3 0  9998,2 55402  69.9996 287.9651 0002500 268.0385  92.0488 14.98323622 50908,6950.213,96.107,573.815,570.34,0.0
55402.0,STARLINK-5071,PAYLOAD,2023-12-28 21:37:36,14.98337193,0.0002463,70.0001,286.1164,252.4159,107.6731,-6.1947e-05,-8.32e-06,0.0,0 STARLINK-5071,1 55402U 23014M   23362.90111415 -.00000832  00000-0 -61947-4 0  9990,2 55402  70.0001 286.1164 0002463 252.4159 107.6731 14.98337193 51950,6950.171,96.107,573.747,570.324,0.0
55402.0,STARLINK-5071,PAYLOAD,2023-12-29 04:02:08,14.98335962,0.000245,70.0001,285.4432,253.2686,106.8205,-7.0806e-05,-9.38e-06,0.0,0 STARLINK-5071,1 55402U 23014M   23363.16815388 -.00000938  00000-0 -70806-4 0  9990,2 55402  70.0001 285.4432 0002450 253.2686 106.8205 14.98335962 51050,6950.174,96.107,573.742,570.337,0.0
55402.0,STARLINK-5071,PAYLOAD,2023-12-29 05:38:16,14.98336949,0.0002455,70.0,285.2743,254.7577,105.3311,-5.7249e-05,-7.76e-06,0.0,0 STARLINK-5071,1 55402U 23014M   23363.23491272 -.00000776  00000-0 -57249-4 0  9996,2 55402  70.0000 285.2743 0002455 254.7577 105.3311 14.98336949 52006,6950.171,96.107,573.743,570.33,0.0
55402.0,STARLINK-5071,PAYLOAD,2023-12-29 21:39:36,14.98337278,0.0002432,70.0,283.5906,256.5003,103.5885,-1.6784e-05,-2.93e-06,0.0,0 STARLINK-5071,1 55402U 23014M   23363.90250766 -.00000293  00000-0 -16784-4 0  9994,2 55402  70.0000 283.5906 0002432 256.5003 103.5885 14.98337278 52100,6950.17,96.107,573.726,570.345,0.0
55402.0,STARLINK-5071,PAYLOAD,2023-12-30 04:04:08,14.98337802,0.0002417,70.0,282.9173,255.5645,104.5246,-6.9683e-06,-1.76e-06,0.0,0 STARLINK-5071,1 55402U 23014M   23364.16954572 -.00000176  00000-0 -69683-5 0  9996,2 55402  70.0000 282.9173 0002417 255.5645 104.5246 14.98337802 51208,6950.169,96.106,573.714,570.354,0.0
55402.0,STARLINK-5071,PAYLOAD,2023-12-30 20:05:29,14.98327146,0.0002349,70.0003,281.2345,250.1285,109.9621,-1.246e-05,-2.42e-06,0.0,0 STARLINK-5071,1 55402U 23014M   23364.83715100 -.00000242  00000-0 -12460-4 0  9996,2 55402  70.0003 281.2345 0002349 250.1285 109.9621 14.98327146 51306,6950.202,96.107,573.699,570.434,0.0
55402.0,STARLINK-5071,PAYLOAD,2023-12-30 21:41:37,14.98326825,0.0002361,70.0002,281.0662,249.9756,110.1149,-1.7781e-05,-3.05e-06,0.0,0 STARLINK-5071,1 55402U 23014M   23364.90391130 -.00000305  00000-0 -17781-4 0  9998,2 55402  70.0002 281.0662 0002361 249.9756 110.1149 14.98326825 52255,6950.203,96.107,573.709,570.427,0.0
